ORBCOMM FM115           
1 41186U 15081H   25344.83141272  .00001404  00000+0  30573-3 0  9990
2 41186  46.9990 279.2042 0000598 211.0026 149.0827 14.62915331533635
ORBCOMM FM108           
1 41187U 15081J   25344.72620303  .00001688  00000+0  39589-3 0  9996
2 41187  47.0062 353.0343 0002049  21.7619 338.3354 14.58547971532565
ORBCOMM FM117           
1 41188U 15081K   25344.41808052  .00001681  00000+0  39419-3 0  9997
2 41188  47.0022 353.1901 0002257  32.4624 327.6400 14.58572599532566
ORBCOMM FM116           
1 41189U 15081L   25344.53538325  .00001603  00000+0  37765-3 0  9990
2 41189  47.0025  82.4053 0002543 257.7313 102.3288 14.58564712531395
